[{"OBJECT_NAME":"COSMOS 2251 DEB","OBJECT_ID":"1993-036BVN","EPOCH":"2026-03-03T17:21:05.358816","MEAN_MOTION":14.59412531,"ECCENTRICITY":0.0044267,"INCLINATION":73.9399,"RA_OF_ASC_NODE":307.9303,"ARG_OF_PERICENTER":2.4271,"MEAN_ANOMALY":357.7099,"EPHEMERIS_TYPE":0,"CLASSIFICATION_TYPE":"U","NORAD_CAT_ID":40233,"ELEMENT_SET_NO":999,"REV_AT_EPOCH":60318,"BSTAR":0.0011842,"MEAN_MOTION_DOT":5.661e-5,"MEAN_MOTION_DDOT":0},{"OBJECT_NAME":"COSMOS 2251 DEB","OBJECT_ID":"1993-036BVR","EPOCH":"2026-02-17T15:10:28.734528","MEAN_MOTION":13.24799143,"ECCENTRICITY":0.05379234,"INCLINATION":73.5345,"RA_OF_ASC_NODE":38.2846,"ARG_OF_PERICENTER":272.5358,"MEAN_ANOMALY":81.4287,"EPHEMERIS_TYPE":0,"CLASSIFICATION_TYPE":"U","NORAD_CAT_ID":40236,"ELEMENT_SET_NO":999,"REV_AT_EPOCH":54510,"BSTAR":0.00076930137,"MEAN_MOTION_DOT":6.98e-6,"MEAN_MOTION_DDOT":0},{"OBJECT_NAME":"COSMOS 2251 DEB","OBJECT_ID":"1993-036BVT","EPOCH":"2026-02-13T03:10:30.754560","MEAN_MOTION":13.25387917,"ECCENTRICITY":0.0553052,"INCLINATION":73.9976,"RA_OF_ASC_NODE":327.7658,"ARG_OF_PERICENTER":287.868,"MEAN_ANOMALY":66.2853,"EPHEMERIS_TYPE":0,"CLASSIFICATION_TYPE":"U","NORAD_CAT_ID":40238,"ELEMENT_SET_NO":999,"REV_AT_EPOCH":54863,"BSTAR":-0.0010594337,"MEAN_MOTION_DOT":-1.079e-5,"MEAN_MOTION_DDOT":0},{"OBJECT_NAME":"COSMOS 2251 DEB","OBJECT_ID":"1993-036BVU","EPOCH":"2026-02-05T02:36:45.829728","MEAN_MOTION":14.62250063,"ECCENTRICITY":0.00869096,"INCLINATION":74.0297,"RA_OF_ASC_NODE":171.6906,"ARG_OF_PERICENTER":270.6387,"MEAN_ANOMALY":268.1502,"EPHEMERIS_TYPE":0,"CLASSIFICATION_TYPE":"U","NORAD_CAT_ID":40239,"ELEMENT_SET_NO":999,"REV_AT_EPOCH":60405,"BSTAR":0.00055490899,"MEAN_MOTION_DOT":2.921e-5,"MEAN_MOTION_DDOT":0},{"OBJECT_NAME":"COSMOS 2251 DEB","OBJECT_ID":"1993-036BVV","EPOCH":"2026-02-28T12:59:10.651200","MEAN_MOTION":14.68650337,"ECCENTRICITY":0.00168718,"INCLINATION":74.0421,"RA_OF_ASC_NODE":257.1398,"ARG_OF_PERICENTER":337.6218,"MEAN_ANOMALY":53.0139,"EPHEMERIS_TYPE":0,"CLASSIFICATION_TYPE":"U","NORAD_CAT_ID":40792,"ELEMENT_SET_NO":999,"REV_AT_EPOCH":64326,"BSTAR":0.00088443704,"MEAN_MOTION_DOT":5.127e-5,"MEAN_MOTION_DDOT":0},{"OBJECT_NAME":"COSMOS 2251 DEB","OBJECT_ID":"1993-036BVX","EPOCH":"2026-02-27T02:46:25.272192","MEAN_MOTION":15.00605669,"ECCENTRICITY":0.00077962,"INCLINATION":73.9694,"RA_OF_ASC_NODE":329.1878,"ARG_OF_PERICENTER":113.5437,"MEAN_ANOMALY":312.9579,"EPHEMERIS_TYPE":0,"CLASSIFICATION_TYPE":"U","NORAD_CAT_ID":40794,"ELEMENT_SET_NO":999,"REV_AT_EPOCH":63067,"BSTAR":0.0031465727,"MEAN_MOTION_DOT":0.0003998,"MEAN_MOTION_DDOT":0},{"OBJECT_NAME":"COSMOS 2251 DEB","OBJECT_ID":"1993-036BVZ","EPOCH":"2026-02-22T04:28:03.252864","MEAN_MOTION":14.82864088,"ECCENTRICITY":0.00525044,"INCLINATION":74.0142,"RA_OF_ASC_NODE":0.7305,"ARG_OF_PERICENTER":120.9149,"MEAN_ANOMALY":302.1682,"EPHEMERIS_TYPE":0,"CLASSIFICATION_TYPE":"U","NORAD_CAT_ID":40796,"ELEMENT_SET_NO":999,"REV_AT_EPOCH":77217,"BSTAR":0.00067527443,"MEAN_MOTION_DOT":5.572e-5,"MEAN_MOTION_DDOT":0},{"OBJECT_NAME":"COSMOS 2251 DEB","OBJECT_ID":"1993-036BWC","EPOCH":"2026-03-01T08:05:57.545376","MEAN_MOTION":14.97612795,"ECCENTRICITY":0.01162666,"INCLINATION":73.926,"RA_OF_ASC_NODE":298.2127,"ARG_OF_PERICENTER":162.8882,"MEAN_ANOMALY":197.6278,"EPHEMERIS_TYPE":0,"CLASSIFICATION_TYPE":"U","NORAD_CAT_ID":40799,"ELEMENT_SET_NO":999,"REV_AT_EPOCH":51153,"BSTAR":0.00042095283,"MEAN_MOTION_DOT":5.616e-5,"MEAN_MOTION_DDOT":0},{"OBJECT_NAME":"COSMOS 2251 DEB","OBJECT_ID":"1993-036BWF","EPOCH":"2026-02-28T12:20:45.545856","MEAN_MOTION":14.78520475,"ECCENTRICITY":0.00593111,"INCLINATION":74.0429,"RA_OF_ASC_NODE":0.3071,"ARG_OF_PERICENTER":78.683,"MEAN_ANOMALY":282.1002,"EPHEMERIS_TYPE":0,"CLASSIFICATION_TYPE":"U","NORAD_CAT_ID":40802,"ELEMENT_SET_NO":999,"REV_AT_EPOCH":65558,"BSTAR":0.00074156774,"MEAN_MOTION_DOT":5.549e-5,"MEAN_MOTION_DDOT":0},{"OBJECT_NAME":"COSMOS 2251 DEB","OBJECT_ID":"1993-036BWG","EPOCH":"2026-03-03T12:42:47.769984","MEAN_MOTION":14.52050992,"ECCENTRICITY":0.0031847,"INCLINATION":74.0115,"RA_OF_ASC_NODE":259.506,"ARG_OF_PERICENTER":95.9866,"MEAN_ANOMALY":264.4926,"EPHEMERIS_TYPE":0,"CLASSIFICATION_TYPE":"U","NORAD_CAT_ID":40803,"ELEMENT_SET_NO":999,"REV_AT_EPOCH":59925,"BSTAR":0.00034475,"MEAN_MOTION_DOT":1.375e-5,"MEAN_MOTION_DDOT":0},{"OBJECT_NAME":"COSMOS 2251 DEB","OBJECT_ID":"1993-036BWM","EPOCH":"2026-03-02T06:23:54.423168","MEAN_MOTION":14.69135077,"ECCENTRICITY":0.00074284,"INCLINATION":74.0471,"RA_OF_ASC_NODE":351.7457,"ARG_OF_PERICENTER":352.2591,"MEAN_ANOMALY":166.4618,"EPHEMERIS_TYPE":0,"CLASSIFICATION_TYPE":"U","NORAD_CAT_ID":40808,"ELEMENT_SET_NO":999,"REV_AT_EPOCH":64786,"BSTAR":0.0018821177,"MEAN_MOTION_DOT":0.0001106,"MEAN_MOTION_DDOT":0},{"OBJECT_NAME":"COSMOS 2251 DEB","OBJECT_ID":"1993-036BWP","EPOCH":"2026-03-03T13:55:47.872416","MEAN_MOTION":14.59334271,"ECCENTRICITY":0.0017143,"INCLINATION":74.0336,"RA_OF_ASC_NODE":280.7093,"ARG_OF_PERICENTER":47.1494,"MEAN_ANOMALY":313.1108,"EPHEMERIS_TYPE":0,"CLASSIFICATION_TYPE":"U","NORAD_CAT_ID":40810,"ELEMENT_SET_NO":999,"REV_AT_EPOCH":62862,"BSTAR":0.00071965,"MEAN_MOTION_DOT":3.383e-5,"MEAN_MOTION_DDOT":0},{"OBJECT_NAME":"COSMOS 2251 DEB","OBJECT_ID":"1993-036BWT","EPOCH":"2026-02-10T12:26:59.359776","MEAN_MOTION":14.51605684,"ECCENTRICITY":0.00386343,"INCLINATION":74.0483,"RA_OF_ASC_NODE":325.7557,"ARG_OF_PERICENTER":70.1154,"MEAN_ANOMALY":290.4164,"EPHEMERIS_TYPE":0,"CLASSIFICATION_TYPE":"U","NORAD_CAT_ID":46271,"ELEMENT_SET_NO":999,"REV_AT_EPOCH":85509,"BSTAR":0.00032913568,"MEAN_MOTION_DOT":1.303e-5,"MEAN_MOTION_DDOT":0},{"OBJECT_NAME":"COSMOS 2251 DEB","OBJECT_ID":"1993-036BWU","EPOCH":"2026-02-27T18:42:40.955616","MEAN_MOTION":14.52666006,"ECCENTRICITY":0.00962859,"INCLINATION":73.9115,"RA_OF_ASC_NODE":210.0861,"ARG_OF_PERICENTER":112.8262,"MEAN_ANOMALY":248.3104,"EPHEMERIS_TYPE":0,"CLASSIFICATION_TYPE":"U","NORAD_CAT_ID":46430,"ELEMENT_SET_NO":999,"REV_AT_EPOCH":80801,"BSTAR":0.0020057817,"MEAN_MOTION_DOT":8.716e-5,"MEAN_MOTION_DDOT":0},{"OBJECT_NAME":"COSMOS 2251 DEB","OBJECT_ID":"1993-036BWW","EPOCH":"2026-02-27T05:24:54.081216","MEAN_MOTION":13.36748448,"ECCENTRICITY":0.0471353,"INCLINATION":73.8747,"RA_OF_ASC_NODE":350.7695,"ARG_OF_PERICENTER":95.3764,"MEAN_ANOMALY":337.948,"EPHEMERIS_TYPE":0,"CLASSIFICATION_TYPE":"U","NORAD_CAT_ID":46432,"ELEMENT_SET_NO":999,"REV_AT_EPOCH":67988,"BSTAR":0.0010096,"MEAN_MOTION_DOT":9.73e-6,"MEAN_MOTION_DDOT":0},{"OBJECT_NAME":"COSMOS 2251 DEB","OBJECT_ID":"1993-036BWZ","EPOCH":"2026-02-02T07:24:08.040960","MEAN_MOTION":14.38935714,"ECCENTRICITY":0.002931,"INCLINATION":74.0575,"RA_OF_ASC_NODE":54.1762,"ARG_OF_PERICENTER":185.7,"MEAN_ANOMALY":189.6698,"EPHEMERIS_TYPE":0,"CLASSIFICATION_TYPE":"U","NORAD_CAT_ID":47045,"ELEMENT_SET_NO":999,"REV_AT_EPOCH":8547,"BSTAR":7.8302e-5,"MEAN_MOTION_DOT":2.16e-6,"MEAN_MOTION_DDOT":0},{"OBJECT_NAME":"COSMOS 2251 DEB","OBJECT_ID":"1993-036BXC","EPOCH":"2026-03-01T15:50:08.054016","MEAN_MOTION":14.53233526,"ECCENTRICITY":0.0134761,"INCLINATION":73.9788,"RA_OF_ASC_NODE":169.7433,"ARG_OF_PERICENTER":337.3286,"MEAN_ANOMALY":86.8666,"EPHEMERIS_TYPE":0,"CLASSIFICATION_TYPE":"U","NORAD_CAT_ID":47048,"ELEMENT_SET_NO":999,"REV_AT_EPOCH":60836,"BSTAR":0.0011097,"MEAN_MOTION_DOT":5.16e-5,"MEAN_MOTION_DDOT":0},{"OBJECT_NAME":"COSMOS 2251 DEB","OBJECT_ID":"1993-036BXF","EPOCH":"2026-02-26T06:00:17.828640","MEAN_MOTION":13.67442496,"ECCENTRICITY":0.0340476,"INCLINATION":74.0972,"RA_OF_ASC_NODE":60.1411,"ARG_OF_PERICENTER":156.9473,"MEAN_ANOMALY":223.2083,"EPHEMERIS_TYPE":0,"CLASSIFICATION_TYPE":"U","NORAD_CAT_ID":47051,"ELEMENT_SET_NO":999,"REV_AT_EPOCH":60970,"BSTAR":0.00084654,"MEAN_MOTION_DOT":1.045e-5,"MEAN_MOTION_DDOT":0},{"OBJECT_NAME":"COSMOS 2251 DEB","OBJECT_ID":"1993-036BXG","EPOCH":"2026-02-27T19:56:27.377088","MEAN_MOTION":14.35635164,"ECCENTRICITY":0.0060106,"INCLINATION":74.0482,"RA_OF_ASC_NODE":199.0031,"ARG_OF_PERICENTER":255.6122,"MEAN_ANOMALY":257.3806,"EPHEMERIS_TYPE":0,"CLASSIFICATION_TYPE":"U","NORAD_CAT_ID":47052,"ELEMENT_SET_NO":999,"REV_AT_EPOCH":62895,"BSTAR":0.00030174602,"MEAN_MOTION_DOT":8.62e-6,"MEAN_MOTION_DDOT":0},{"OBJECT_NAME":"COSMOS 2251 DEB","OBJECT_ID":"1993-036BXH","EPOCH":"2026-02-09T01:53:10.207968","MEAN_MOTION":13.59837713,"ECCENTRICITY":0.03811045,"INCLINATION":74.0576,"RA_OF_ASC_NODE":159.6243,"ARG_OF_PERICENTER":320.0647,"MEAN_ANOMALY":225.2715,"EPHEMERIS_TYPE":0,"CLASSIFICATION_TYPE":"U","NORAD_CAT_ID":47053,"ELEMENT_SET_NO":999,"REV_AT_EPOCH":29681,"BSTAR":0.0012257384,"MEAN_MOTION_DOT":1.45e-5,"MEAN_MOTION_DDOT":0},{"OBJECT_NAME":"COSMOS 2251 DEB","OBJECT_ID":"1993-036BXP","EPOCH":"2026-02-24T10:20:14.374752","MEAN_MOTION":15.23304419,"ECCENTRICITY":0.00189769,"INCLINATION":73.9739,"RA_OF_ASC_NODE":80.9699,"ARG_OF_PERICENTER":258.0232,"MEAN_ANOMALY":101.8839,"EPHEMERIS_TYPE":0,"CLASSIFICATION_TYPE":"U","NORAD_CAT_ID":47059,"ELEMENT_SET_NO":999,"REV_AT_EPOCH":9423,"BSTAR":0.0028818799,"MEAN_MOTION_DOT":0.00069352,"MEAN_MOTION_DDOT":0},{"OBJECT_NAME":"COSMOS 2251 DEB","OBJECT_ID":"1993-036BXS","EPOCH":"2026-02-10T03:49:49.154016","MEAN_MOTION":13.72079263,"ECCENTRICITY":0.03198916,"INCLINATION":74.0836,"RA_OF_ASC_NODE":340.1786,"ARG_OF_PERICENTER":92.0096,"MEAN_ANOMALY":333.3005,"EPHEMERIS_TYPE":0,"CLASSIFICATION_TYPE":"U","NORAD_CAT_ID":47062,"ELEMENT_SET_NO":999,"REV_AT_EPOCH":56417,"BSTAR":0.0013820815,"MEAN_MOTION_DOT":1.791e-5,"MEAN_MOTION_DDOT":0},{"OBJECT_NAME":"COSMOS 2251 DEB","OBJECT_ID":"1993-036BXY","EPOCH":"2026-02-13T11:21:04.933728","MEAN_MOTION":14.53757237,"ECCENTRICITY":0.00162854,"INCLINATION":74.0237,"RA_OF_ASC_NODE":84.9309,"ARG_OF_PERICENTER":168.6745,"MEAN_ANOMALY":191.4787,"EPHEMERIS_TYPE":0,"CLASSIFICATION_TYPE":"U","NORAD_CAT_ID":47068,"ELEMENT_SET_NO":999,"REV_AT_EPOCH":62668,"BSTAR":0.00070711689,"MEAN_MOTION_DOT":2.943e-5,"MEAN_MOTION_DDOT":0}]
